[{"OBJECT_NAME":"STARLINK-37389","OBJECT_ID":"2026-086N","EPOCH":"2026-04-29T20:00:01.999008","MEAN_MOTION":15.86528744,"ECCENTRICITY":0.0001287,"INCLINATION":97.2776,"RA_OF_ASC_NODE":155.4267,"ARG_OF_PERICENTER":75.304,"MEAN_ANOMALY":325.1089,"EPHEMERIS_TYPE":0,"CLASSIFICATION_TYPE":"U","NORAD_CAT_ID":68778,"ELEMENT_SET_NO":999,"REV_AT_EPOCH":276,"BSTAR":-0.0082399,"MEAN_MOTION_DOT":-0.01783643,"MEAN_MOTION_DDOT":0},{"OBJECT_NAME":"STARLINK-37391","OBJECT_ID":"2026-086P","EPOCH":"2026-04-29T20:00:01.999008","MEAN_MOTION":15.86816229,"ECCENTRICITY":0.0001431,"INCLINATION":97.2772,"RA_OF_ASC_NODE":155.4299,"ARG_OF_PERICENTER":81.4793,"MEAN_ANOMALY":325.9624,"EPHEMERIS_TYPE":0,"CLASSIFICATION_TYPE":"U","NORAD_CAT_ID":68779,"ELEMENT_SET_NO":999,"REV_AT_EPOCH":276,"BSTAR":-0.0081428,"MEAN_MOTION_DOT":-0.01787322,"MEAN_MOTION_DDOT":0},{"OBJECT_NAME":"STARLINK-37266","OBJECT_ID":"2026-086Q","EPOCH":"2026-04-29T20:00:01.999008","MEAN_MOTION":15.86950759,"ECCENTRICITY":0.0001323,"INCLINATION":97.2767,"RA_OF_ASC_NODE":155.4308,"ARG_OF_PERICENTER":68.5153,"MEAN_ANOMALY":342.4134,"EPHEMERIS_TYPE":0,"CLASSIFICATION_TYPE":"U","NORAD_CAT_ID":68780,"ELEMENT_SET_NO":999,"REV_AT_EPOCH":276,"BSTAR":-0.0080356,"MEAN_MOTION_DOT":-0.01777114,"MEAN_MOTION_DDOT":0},{"OBJECT_NAME":"STARLINK-37236","OBJECT_ID":"2026-086R","EPOCH":"2026-04-29T20:00:01.999008","MEAN_MOTION":15.87052457,"ECCENTRICITY":0.0001416,"INCLINATION":97.2767,"RA_OF_ASC_NODE":155.4326,"ARG_OF_PERICENTER":85.0216,"MEAN_ANOMALY":329.6627,"EPHEMERIS_TYPE":0,"CLASSIFICATION_TYPE":"U","NORAD_CAT_ID":68781,"ELEMENT_SET_NO":999,"REV_AT_EPOCH":276,"BSTAR":-0.0079987,"MEAN_MOTION_DOT":-0.01777855,"MEAN_MOTION_DDOT":0},{"OBJECT_NAME":"STARLINK-37390","OBJECT_ID":"2026-086S","EPOCH":"2026-04-29T20:00:01.999008","MEAN_MOTION":15.87193832,"ECCENTRICITY":0.0001338,"INCLINATION":97.2762,"RA_OF_ASC_NODE":155.4335,"ARG_OF_PERICENTER":77.481,"MEAN_ANOMALY":340.6795,"EPHEMERIS_TYPE":0,"CLASSIFICATION_TYPE":"U","NORAD_CAT_ID":68782,"ELEMENT_SET_NO":999,"REV_AT_EPOCH":276,"BSTAR":-0.0079689,"MEAN_MOTION_DOT":-0.01782761,"MEAN_MOTION_DDOT":0},{"OBJECT_NAME":"STARLINK-37364","OBJECT_ID":"2026-086T","EPOCH":"2026-04-29T20:00:01.999008","MEAN_MOTION":15.87417634,"ECCENTRICITY":0.0001472,"INCLINATION":97.2763,"RA_OF_ASC_NODE":155.4369,"ARG_OF_PERICENTER":77.9467,"MEAN_ANOMALY":347.5812,"EPHEMERIS_TYPE":0,"CLASSIFICATION_TYPE":"U","NORAD_CAT_ID":68783,"ELEMENT_SET_NO":999,"REV_AT_EPOCH":276,"BSTAR":-0.0079525,"MEAN_MOTION_DOT":-0.01796793,"MEAN_MOTION_DDOT":0},{"OBJECT_NAME":"STARLINK-37401","OBJECT_ID":"2026-086U","EPOCH":"2026-04-29T20:00:01.999008","MEAN_MOTION":15.87302661,"ECCENTRICITY":0.0001377,"INCLINATION":97.2766,"RA_OF_ASC_NODE":155.4356,"ARG_OF_PERICENTER":75.4666,"MEAN_ANOMALY":346.4152,"EPHEMERIS_TYPE":0,"CLASSIFICATION_TYPE":"U","NORAD_CAT_ID":68784,"ELEMENT_SET_NO":999,"REV_AT_EPOCH":276,"BSTAR":-0.0079691,"MEAN_MOTION_DOT":-0.01791122,"MEAN_MOTION_DDOT":0},{"OBJECT_NAME":"STARLINK-37335","OBJECT_ID":"2026-086V","EPOCH":"2026-04-29T20:00:01.999008","MEAN_MOTION":15.87881064,"ECCENTRICITY":0.0001442,"INCLINATION":97.2757,"RA_OF_ASC_NODE":155.4424,"ARG_OF_PERICENTER":77.0887,"MEAN_ANOMALY":2.9081,"EPHEMERIS_TYPE":0,"CLASSIFICATION_TYPE":"U","NORAD_CAT_ID":68785,"ELEMENT_SET_NO":999,"REV_AT_EPOCH":276,"BSTAR":-0.0078586,"MEAN_MOTION_DOT":-0.0181407,"MEAN_MOTION_DDOT":0},{"OBJECT_NAME":"STARLINK-37404","OBJECT_ID":"2026-086W","EPOCH":"2026-04-29T20:00:01.999008","MEAN_MOTION":15.87627396,"ECCENTRICITY":0.0001423,"INCLINATION":97.276,"RA_OF_ASC_NODE":155.4397,"ARG_OF_PERICENTER":79.2171,"MEAN_ANOMALY":353.7724,"EPHEMERIS_TYPE":0,"CLASSIFICATION_TYPE":"U","NORAD_CAT_ID":68786,"ELEMENT_SET_NO":999,"REV_AT_EPOCH":276,"BSTAR":-0.0079538,"MEAN_MOTION_DOT":-0.01813108,"MEAN_MOTION_DDOT":0},{"OBJECT_NAME":"STARLINK-37292","OBJECT_ID":"2026-086X","EPOCH":"2026-04-29T20:00:01.999008","MEAN_MOTION":15.88006171,"ECCENTRICITY":0.0001483,"INCLINATION":97.2759,"RA_OF_ASC_NODE":155.4442,"ARG_OF_PERICENTER":69.6838,"MEAN_ANOMALY":13.8295,"EPHEMERIS_TYPE":0,"CLASSIFICATION_TYPE":"U","NORAD_CAT_ID":68787,"ELEMENT_SET_NO":999,"REV_AT_EPOCH":276,"BSTAR":-0.0078362,"MEAN_MOTION_DOT":-0.01819401,"MEAN_MOTION_DDOT":0},{"OBJECT_NAME":"STARLINK-37403","OBJECT_ID":"2026-086Y","EPOCH":"2026-04-29T20:00:01.999008","MEAN_MOTION":15.87760285,"ECCENTRICITY":0.0001467,"INCLINATION":97.2756,"RA_OF_ASC_NODE":155.4404,"ARG_OF_PERICENTER":76.3839,"MEAN_ANOMALY":0.0652,"EPHEMERIS_TYPE":0,"CLASSIFICATION_TYPE":"U","NORAD_CAT_ID":68788,"ELEMENT_SET_NO":999,"REV_AT_EPOCH":287,"BSTAR":-0.0079004,"MEAN_MOTION_DOT":-0.01812985,"MEAN_MOTION_DDOT":0},{"OBJECT_NAME":"STARLINK-37413","OBJECT_ID":"2026-086Z","EPOCH":"2026-04-29T20:00:01.999008","MEAN_MOTION":15.87498947,"ECCENTRICITY":0.0001339,"INCLINATION":97.2761,"RA_OF_ASC_NODE":155.4385,"ARG_OF_PERICENTER":77.4019,"MEAN_ANOMALY":352.0507,"EPHEMERIS_TYPE":0,"CLASSIFICATION_TYPE":"U","NORAD_CAT_ID":68789,"ELEMENT_SET_NO":999,"REV_AT_EPOCH":276,"BSTAR":-0.0079791,"MEAN_MOTION_DOT":-0.01808036,"MEAN_MOTION_DDOT":0},{"OBJECT_NAME":"STARLINK-37313","OBJECT_ID":"2026-086AA","EPOCH":"2026-04-29T20:00:01.999008","MEAN_MOTION":15.88166404,"ECCENTRICITY":0.0001468,"INCLINATION":97.2752,"RA_OF_ASC_NODE":155.4457,"ARG_OF_PERICENTER":74.3475,"MEAN_ANOMALY":12.3244,"EPHEMERIS_TYPE":0,"CLASSIFICATION_TYPE":"U","NORAD_CAT_ID":68790,"ELEMENT_SET_NO":999,"REV_AT_EPOCH":276,"BSTAR":-0.0077367,"MEAN_MOTION_DOT":-0.01811989,"MEAN_MOTION_DDOT":0},{"OBJECT_NAME":"NAVSTAR 86 (USA 585)","OBJECT_ID":"2026-087A","EPOCH":"2026-04-22T08:11:45.645792","MEAN_MOTION":4.03281331,"ECCENTRICITY":0.59420752,"INCLINATION":54.9968,"RA_OF_ASC_NODE":210.8716,"ARG_OF_PERICENTER":270.2176,"MEAN_ANOMALY":26.1146,"EPHEMERIS_TYPE":0,"CLASSIFICATION_TYPE":"U","NORAD_CAT_ID":68791,"ELEMENT_SET_NO":999,"REV_AT_EPOCH":5,"BSTAR":0.0019778413,"MEAN_MOTION_DOT":2.417e-5,"MEAN_MOTION_DDOT":0},{"OBJECT_NAME":"FSI-SAT2","OBJECT_ID":"2026-088A","EPOCH":"2026-04-25T16:25:10.379424","MEAN_MOTION":15.06389719,"ECCENTRICITY":0.0012809,"INCLINATION":97.499,"RA_OF_ASC_NODE":266.2992,"ARG_OF_PERICENTER":287.5176,"MEAN_ANOMALY":72.4651,"EPHEMERIS_TYPE":0,"CLASSIFICATION_TYPE":"U","NORAD_CAT_ID":68792,"ELEMENT_SET_NO":999,"REV_AT_EPOCH":38,"BSTAR":6.1705453e-5,"MEAN_MOTION_DOT":8.49e-6,"MEAN_MOTION_DDOT":0},{"OBJECT_NAME":"KAKUSHIN RISING OBJECT B","OBJECT_ID":"2026-088B","EPOCH":"2026-04-24T19:41:13.210656","MEAN_MOTION":15.06668645,"ECCENTRICITY":0.00143284,"INCLINATION":97.5001,"RA_OF_ASC_NODE":265.4583,"ARG_OF_PERICENTER":287.2171,"MEAN_ANOMALY":72.7488,"EPHEMERIS_TYPE":0,"CLASSIFICATION_TYPE":"U","NORAD_CAT_ID":68793,"ELEMENT_SET_NO":999,"REV_AT_EPOCH":25,"BSTAR":0.00010684024,"MEAN_MOTION_DOT":1.527e-5,"MEAN_MOTION_DDOT":0}]
