STARLINK-37389          
1 68778U 26086N   26119.83335647 -.01783643  00000+0 -82399-2 0  9992
2 68778  97.2776 155.4267 0001287  75.3040 325.1089 15.86528744  2766
STARLINK-37391          
1 68779U 26086P   26119.83335647 -.01787322  00000+0 -81428-2 0  9993
2 68779  97.2772 155.4299 0001431  81.4793 325.9624 15.86816229  2763
STARLINK-37266          
1 68780U 26086Q   26119.83335647 -.01777114  00000+0 -80356-2 0  9992
2 68780  97.2767 155.4308 0001323  68.5153 342.4134 15.86950759  2763
STARLINK-37236          
1 68781U 26086R   26119.83335647 -.01777855  00000+0 -79987-2 0  9993
2 68781  97.2767 155.4326 0001416  85.0216 329.6627 15.87052457  2764
STARLINK-37390          
1 68782U 26086S   26119.83335647 -.01782761  00000+0 -79689-2 0  9995
2 68782  97.2762 155.4335 0001338  77.4810 340.6795 15.87193832  2760
STARLINK-37364          
1 68783U 26086T   26119.83335647 -.01796793  00000+0 -79525-2 0  9995
2 68783  97.2763 155.4369 0001472  77.9467 347.5812 15.87417634  2766
STARLINK-37401          
1 68784U 26086U   26119.83335647 -.01791122  00000+0 -79691-2 0  9991
2 68784  97.2766 155.4356 0001377  75.4666 346.4152 15.87302661  2762
STARLINK-37335          
1 68785U 26086V   26119.83335647 -.01814070  00000+0 -78586-2 0  9992
2 68785  97.2757 155.4424 0001442  77.0887   2.9081 15.87881064  2769
STARLINK-37404          
1 68786U 26086W   26119.83335647 -.01813108  00000+0 -79538-2 0  9992
2 68786  97.2760 155.4397 0001423  79.2171 353.7724 15.87627396  2769
STARLINK-37292          
1 68787U 26086X   26119.83335647 -.01819401  00000+0 -78362-2 0  9999
2 68787  97.2759 155.4442 0001483  69.6838  13.8295 15.88006171  2768
STARLINK-37403          
1 68788U 26086Y   26119.83335647 -.01812985  00000+0 -79004-2 0  9994
2 68788  97.2756 155.4404 0001467  76.3839   0.0652 15.87760285  2871
STARLINK-37413          
1 68789U 26086Z   26119.83335647 -.01808036  00000+0 -79791-2 0  9990
2 68789  97.2761 155.4385 0001339  77.4019 352.0507 15.87498947  2766
STARLINK-37313          
1 68790U 26086AA  26119.83335647 -.01811989  00000+0 -77367-2 0  9990
2 68790  97.2752 155.4457 0001468  74.3475  12.3244 15.88166404  2768
NAVSTAR 86 (USA 585)    
1 68791U 26087A   26112.34150053  .00002417  00000+0  19778-2 0  9994
2 68791  54.9968 210.8716 5942075 270.2176  26.1146  4.03281331    56
FSI-SAT2                
1 68792U 26088A   26115.68414791  .00000849  00000+0  61705-4 0  9994
2 68792  97.4990 266.2992 0012809 287.5176  72.4651 15.06389719   389
KAKUSHIN RISING OBJECT B
1 68793U 26088B   26114.82029179  .00001527  00000+0  10684-3 0  9995
2 68793  97.5001 265.4583 0014328 287.2171  72.7488 15.06668645   256
